MUOS-4                  
1 40887U 15044A   23042.88503788 -.00000081  00000+0  00000+0 0  9997
2 40887   2.6252  16.9520 0057318 356.9886 161.3724  1.00271692 27313
GSAT0205 (GALILEO 9)    
1 40889U 15045A   23040.03338584  .00000061  00000+0  00000+0 0  9992
2 40889  55.4779 255.4254 0006489  30.9420 329.1508  1.70473326 46146
GAOFEN 9-01             
1 40894U 15047A   23043.12103953  .00004183  00000+0  60239-3 0  9996
2 40894  97.7889 110.4013 0031730 157.8848 202.3693 14.76508727399542
2015-049A               
1 40899U 15049A   23043.02839347  .00016366  00000+0  70056-3 0  9999
2 40899  97.4834  50.5940 0010623 244.5988 199.7064 15.22830189409538
ZDPS 2A                 
1 40901U 15049C   23042.55677845  .00043718  00000+0  14206-2 0  9998
2 40901  97.4551  56.1469 0008410 204.3410 155.7435 15.31750154409943
XW-2A                   
1 40903U 15049E   23043.04343863  .00136272  00000+0  96731-3 0  9997
2 40903  97.1398 108.8259 0004578 295.6738 149.0696 15.73497872416629
KAITUO 1A               
1 40904U 15049F   23043.04773433  .00021728  00000+0  95974-3 0  9995
2 40904  97.4996  48.8077 0009870 253.0396 192.4729 15.21706918409242
2015-049G               
1 40905U 15049G   23043.02355837  .00010307  00000+0  49902-3 0  9999
2 40905  97.5228  45.9428 0011985 258.7357 175.6560 15.18696808408943
XW-2C                   
1 40906U 15049H   23042.95282866  .00017196  00000+0  74075-3 0  9994
2 40906  97.4970  49.9819 0010713 235.1738 210.2364 15.22603975409313
