[
  {
    "OBJECT_NAME": "MUOS-4",
    "OBJECT_ID": "2015-044A",
    "EPOCH": "2023-02-11T21:14:27.272832",
    "MEAN_MOTION": 1.00271692,
    "ECCENTRICITY": 0.0057318,
    "INCLINATION": 2.6252,
    "RA_OF_ASC_NODE": 16.952,
    "ARG_OF_PERICENTER": 356.9886,
    "MEAN_ANOMALY": 161.3724,
    "EPHEMERIS_TYPE": 0,
    "CLASSIFICATION_TYPE": "U",
    "NORAD_CAT_ID": 40887,
    "ELEMENT_SET_NO": 999,
    "REV_AT_EPOCH": 2731,
    "BSTAR": 0,
    "MEAN_MOTION_DOT": -8.1e-7,
    "MEAN_MOTION_DDOT": 0
  },
  {
    "OBJECT_NAME": "GSAT0205 (GALILEO 9)",
    "OBJECT_ID": "2015-045A",
    "EPOCH": "2023-02-09T00:48:04.536576",
    "MEAN_MOTION": 1.70473326,
    "ECCENTRICITY": 0.0006489,
    "INCLINATION": 55.4779,
    "RA_OF_ASC_NODE": 255.4254,
    "ARG_OF_PERICENTER": 30.942,
    "MEAN_ANOMALY": 329.1508,
    "EPHEMERIS_TYPE": 0,
    "CLASSIFICATION_TYPE": "U",
    "NORAD_CAT_ID": 40889,
    "ELEMENT_SET_NO": 999,
    "REV_AT_EPOCH": 4614,
    "BSTAR": 0,
    "MEAN_MOTION_DOT": 6.1e-7,
    "MEAN_MOTION_DDOT": 0
  },
  {
    "OBJECT_NAME": "GAOFEN 9-01",
    "OBJECT_ID": "2015-047A",
    "EPOCH": "2023-02-12T02:54:17.815392",
    "MEAN_MOTION": 14.76508727,
    "ECCENTRICITY": 0.003173,
    "INCLINATION": 97.7889,
    "RA_OF_ASC_NODE": 110.4013,
    "ARG_OF_PERICENTER": 157.8848,
    "MEAN_ANOMALY": 202.3693,
    "EPHEMERIS_TYPE": 0,
    "CLASSIFICATION_TYPE": "U",
    "NORAD_CAT_ID": 40894,
    "ELEMENT_SET_NO": 999,
    "REV_AT_EPOCH": 39954,
    "BSTAR": 0.00060239,
    "MEAN_MOTION_DOT": 4.183e-5,
    "MEAN_MOTION_DDOT": 0
  },
  {
    "OBJECT_NAME": "2015-049A",
    "OBJECT_ID": "2015-049A",
    "EPOCH": "2023-02-12T00:40:53.195808",
    "MEAN_MOTION": 15.22830189,
    "ECCENTRICITY": 0.0010623,
    "INCLINATION": 97.4834,
    "RA_OF_ASC_NODE": 50.594,
    "ARG_OF_PERICENTER": 244.5988,
    "MEAN_ANOMALY": 199.7064,
    "EPHEMERIS_TYPE": 0,
    "CLASSIFICATION_TYPE": "U",
    "NORAD_CAT_ID": 40899,
    "ELEMENT_SET_NO": 999,
    "REV_AT_EPOCH": 40953,
    "BSTAR": 0.00070056,
    "MEAN_MOTION_DOT": 0.00016366,
    "MEAN_MOTION_DDOT": 0
  },
  {
    "OBJECT_NAME": "ZDPS 2A",
    "OBJECT_ID": "2015-049C",
    "EPOCH": "2023-02-11T13:21:45.658080",
    "MEAN_MOTION": 15.31750154,
    "ECCENTRICITY": 0.000841,
    "INCLINATION": 97.4551,
    "RA_OF_ASC_NODE": 56.1469,
    "ARG_OF_PERICENTER": 204.341,
    "MEAN_ANOMALY": 155.7435,
    "EPHEMERIS_TYPE": 0,
    "CLASSIFICATION_TYPE": "U",
    "NORAD_CAT_ID": 40901,
    "ELEMENT_SET_NO": 999,
    "REV_AT_EPOCH": 40994,
    "BSTAR": 0.0014206,
    "MEAN_MOTION_DOT": 0.00043718,
    "MEAN_MOTION_DDOT": 0
  },
  {
    "OBJECT_NAME": "XW-2A",
    "OBJECT_ID": "2015-049E",
    "EPOCH": "2023-02-12T01:02:33.097632",
    "MEAN_MOTION": 15.73497872,
    "ECCENTRICITY": 0.0004578,
    "INCLINATION": 97.1398,
    "RA_OF_ASC_NODE": 108.8259,
    "ARG_OF_PERICENTER": 295.6738,
    "MEAN_ANOMALY": 149.0696,
    "EPHEMERIS_TYPE": 0,
    "CLASSIFICATION_TYPE": "U",
    "NORAD_CAT_ID": 40903,
    "ELEMENT_SET_NO": 999,
    "REV_AT_EPOCH": 41662,
    "BSTAR": 0.00096731,
    "MEAN_MOTION_DOT": 0.00136272,
    "MEAN_MOTION_DDOT": 0
  },
  {
    "OBJECT_NAME": "KAITUO 1A",
    "OBJECT_ID": "2015-049F",
    "EPOCH": "2023-02-12T01:08:44.246112",
    "MEAN_MOTION": 15.21706918,
    "ECCENTRICITY": 0.000987,
    "INCLINATION": 97.4996,
    "RA_OF_ASC_NODE": 48.8077,
    "ARG_OF_PERICENTER": 253.0396,
    "MEAN_ANOMALY": 192.4729,
    "EPHEMERIS_TYPE": 0,
    "CLASSIFICATION_TYPE": "U",
    "NORAD_CAT_ID": 40904,
    "ELEMENT_SET_NO": 999,
    "REV_AT_EPOCH": 40924,
    "BSTAR": 0.00095974,
    "MEAN_MOTION_DOT": 0.00021728,
    "MEAN_MOTION_DDOT": 0
  },
  {
    "OBJECT_NAME": "2015-049G",
    "OBJECT_ID": "2015-049G",
    "EPOCH": "2023-02-12T00:33:55.443168",
    "MEAN_MOTION": 15.18696808,
    "ECCENTRICITY": 0.0011985,
    "INCLINATION": 97.5228,
    "RA_OF_ASC_NODE": 45.9428,
    "ARG_OF_PERICENTER": 258.7357,
    "MEAN_ANOMALY": 175.656,
    "EPHEMERIS_TYPE": 0,
    "CLASSIFICATION_TYPE": "U",
    "NORAD_CAT_ID": 40905,
    "ELEMENT_SET_NO": 999,
    "REV_AT_EPOCH": 40894,
    "BSTAR": 0.00049902,
    "MEAN_MOTION_DOT": 0.00010307,
    "MEAN_MOTION_DDOT": 0
  },
  {
    "OBJECT_NAME": "XW-2C",
    "OBJECT_ID": "2015-049H",
    "EPOCH": "2023-02-11T22:52:04.396224",
    "MEAN_MOTION": 15.22603975,
    "ECCENTRICITY": 0.0010713,
    "INCLINATION": 97.497,
    "RA_OF_ASC_NODE": 49.9819,
    "ARG_OF_PERICENTER": 235.1738,
    "MEAN_ANOMALY": 210.2364,
    "EPHEMERIS_TYPE": 0,
    "CLASSIFICATION_TYPE": "U",
    "NORAD_CAT_ID": 40906,
    "ELEMENT_SET_NO": 999,
    "REV_AT_EPOCH": 40931,
    "BSTAR": 0.00074075,
    "MEAN_MOTION_DOT": 0.00017196,
    "MEAN_MOTION_DDOT": 0
  }
]
